STARLINK-1434           
1 45712U 20035BH  26068.24137979  .00054112  00000+0  20295-2 0  9995
2 45712  53.0547  22.1128 0005343  88.0400 272.1210 15.26724568319325
STARLINK-30254          
1 57533U 23115N   26068.45178042 -.00000615  00000+0 -12825-4 0  9993
2 57533  42.9999 104.5001 0001162 262.3501  97.7219 15.27574266145322
